{"fetched_at":"2026-03-29T16:36:15Z","count":15609,"tles":[{"name":"STARLINK-30219","line1":"1 57507U 23113N   26087.82372419  .00002681  00000+0  96240-4 0  9994","line2":"2 57507  43.0015 268.6796 0002502 263.0420  97.0148 15.31100632146595","category":"Starlink"}]}